EUTELSAT 21B            
1 38992U 12062B   25293.93586554  .00000135  00000+0  00000+0 0  9995
2 38992   0.0722 349.9554 0002994 236.1325 162.1047  1.00273972 47428
EUTELSAT 70B            
1 39020U 12069A   25293.92248418 -.00000039  00000+0  00000+0 0  9992
2 39020   0.0669 357.4085 0004292 212.4833 222.3448  1.00271359 47115
EUTELSAT 117 WEST A     
1 39122U 13012A   25293.88520578 -.00000009  00000+0  00000+0 0  9996
2 39122   0.0027  65.2354 0002636 143.7917  22.4438  1.00272033 46036
EUTELSAT 7B             
1 39163U 13022A   25293.90983079  .00000053  00000+0  00000+0 0  9992
2 39163   0.0726   8.3307 0001999 302.6382  53.2136  1.00273792 45552
EUTELSAT 3B             
1 39773U 14030A   25293.90905078  .00000025  00000+0  00000+0 0  9991
2 39773   0.0682   4.1577 0004418 197.4471 158.3796  1.00271567 41666
EUTELSAT 115 WEST B     
1 40425U 15010B   25293.88572578 -.00000021  00000+0  00000+0 0  9995
2 40425   0.0137  77.9532 0000072 164.5010 351.1212  1.00271392 38996
